1 39849U 92093LB  22358.22544971  .00000714  00000-0  46999-3 0  9992
2 39849  70.8667 338.9010 0090144 292.6003  66.5595 14.03404056438629
1 39850U 92093LC  22365.75854101  .00001004  00000-0  63740-3 0  9995
2 39850  71.3372 179.9473 0096259 204.5038 155.1491 14.03865135158740
1 39851U 92093LD  23002.24999831  .00013227  00000-0  42932-2 0  9998
2 39851  71.0827 300.0600 0130041 256.8106 101.8492 14.34245765416589
1 39852U 92093LE  22362.92141616  .00002831  00000-0  84494-3 0  9991
2 39852  71.0112  93.0138 0007813 268.8172  91.2071 14.43838052450566
1 39853U 92093LF  23003.91430667  .00004402  00000-0  52876-3 0  9996
2 39853  71.2791 190.0809 0071729 333.3673  26.3808 14.82730891491811
1 39854U 92093LG  23003.58598700  .00001492  00000-0  79517-3 0  9990
2 39854  71.0169 320.1413 0091712 279.7127  79.3646 14.12843742442005
1 39855U 92093LH  23003.42752190  .00022536  00000-0  55453-2 0  9993
2 39855  70.5150   4.9871 0097373 331.2797  28.2997 14.49348580477966
1 39857U 92093LK  22364.23877611  .00001843  00000-0  89365-3 0  9997
2 39857  70.9224 350.3910 0065086 344.1952  15.7139 14.18614252443160
1 39860U 92093LN  23003.98891681  .00001012  00000-0  44048-3 0  9994
2 39860  70.7857 213.8451 0029874  22.7897 337.4548 14.26274880 21684
1 39862U 92093LQ  23003.30485811  .00003299  00000-0  73376-3 0  9991
2 39862  70.8368  19.9083 0087033 301.0382  58.2236 14.55436602444172
1 39863U 92093LR  23001.95747460  .00004795  00000-0  24562-2 0  9996
2 39863  70.9814  88.4946 0161095 287.8068  70.5532 14.09460570439868
1 39864U 92093LS  22361.45951034  .00002037  00000-0  11091-2 0  9994
2 39864  71.1483 255.3908 0118010  28.2241 332.5207 14.09857215467537
1 39865U 92093LT  23003.02493968  .00001245  00000-0  48241-3 0  9997
2 39865  71.0161 275.4374 0005502 189.5908 170.5119 14.31958140448234
1 39866U 92093LU  23004.02350854  .00005918  00000-0  20053-2 0  9996
2 39866  71.2851 216.4722 0086466  72.3073  77.5326 14.34995462474938
1 39867U 92093LV  23002.43083518  .00004108  00000-0  23559-2 0  9994
2 39867  70.9768 271.5701 0165208  91.0552 270.9496 14.03298557418924
1 39871U 93016AV  23003.47007528  .00009919  00000-0  89580-3 0  9999
2 39871  71.0298 262.5768 0062550 266.9148 265.5711 14.94189813465760
1 39872U 93016AW  23003.09793455  .00000586  00000-0  42960-3 0  9991
2 39872  70.9876  47.7485 0140426 141.9487 248.5408 13.95235723436569
1 39873U 93016AX  23002.02254812  .00007168  00000-0  29439-2 0  9991
2 39873  70.4027 115.1044 0115308 203.2378 156.3510 14.23787442444455
1 39881U 93016BF  23001.62334056  .00001991  00000-0  12808-2 0  9994
2 39881  70.9902 318.7903 0126674  69.3851 292.0796 14.00436275420190
1 39882U 93016BG  22340.80753536  .00010875  00000-0  37433-2 0  9990
2 39882  70.9479  22.3752 0120280 278.2998 197.4407 14.32109647442118
1 39886U 93016BL  23003.60485448  .00002644  00000-0  54013-3 0  9992
2 39886  71.0157 319.0918 0060363 150.3340 210.1253 14.60704217457105
1 39888U 93016BN  22361.48984572  .00003777  00000-0  17125-2 0  9998
2 39888  70.9606 297.6451 0109290 181.9372 178.1346 14.19388154953036
1 39890U 93016BQ  22348.81568363  .00011993  00000-0  42088-2 0  9994
2 39890  70.9625  44.6298 0124897 258.8892  99.8174 14.30824636962132
1 39891U 93016BR  23003.52577752  .00001891  00000-0  68360-3 0  9992
2 39891  71.0004  98.3955 0009798   9.6879 350.4441 14.34775832448781
1 39895U 93016BV  23003.37947270  .00000416  00000-0  32495-3 0  9997
2 39895  70.9890 243.4289 0123570   7.8084 352.4912 13.94402535158046
1 39899U 93016BZ  23003.01295820  .00008641  00000-0  14028-2 0  9998
2 39899  70.9796 221.8136 0006571 300.5830  59.4673 14.71378330458052
1 39900U 93016CA  22362.19308650  .00028577  00000-0  64234-2 0  9997
2 39900  70.9281 314.1765 0069612 345.0310  14.8770 14.54866029450244
1 39902U 93016CC  23002.61719819  .00000105  00000-0  13816-3 0  9999
2 39902  71.0017 226.8015 0191011 151.5477 245.1641 13.73764348430071
1 39903U 93016CD  22363.77781574  .00000312  00000-0  28501-3 0  9990
2 39903  70.9898 149.3986 0138709 227.3800 199.1654 13.86486288434939
1 39907U 93016CH  23003.59227322  .00000482  00000-0  41151-3 0  9996
2 39907  70.9948 113.8041 0133177 200.7984 158.7677 13.88060087436732
1 39908U 93016CJ  23003.60909145  .00000685  00000-0  32195-3 0  9992
2 39908  71.0050 317.1079 0009953 185.1119 347.9001 14.23547187445799
1 39911U 93016CM  23002.17768957  .00000104  00000-0  13868-3 0  9993
2 39911  71.0024 283.7220 0201515 205.5508 153.5528 13.72436849430050
1 39913U 94029AFL 23003.17817568  .00004392  00000-0  15523-2 0  9996
2 39913  81.5713 169.2333 0578410 123.7308 242.0359 13.68456383942948
1 39914U 94029AFM 23003.63765847  .00009663  00000-0  24008-2 0  9994
2 39914  81.3484 134.4060 0421876 177.3331 183.0243 14.09386735439976
1 39915U 94029AFN 23003.74605212  .00025547  00000-0  57376-3 0  9990
2 39915  81.9972   8.3082 0073476  21.7456 338.6879 15.40321255112587
1 39916U 94029AFP 23003.40756083  .00017541  00000-0  20536-2 0  9999
2 39916  81.5795  30.7511 0157229 317.8915 104.7917 14.76396055458701
1 39917U 94029AFQ 23003.51337076  .00013528  00000-0  47563-2 0  9999
2 39917  82.1349 287.5036 0629094 326.8868  29.4318 13.59853923451612
1 39919U 94029AFS 23003.28705121  .00002170  00000-0  48972-3 0  9992
2 39919  81.8519 210.2789 0290269 122.1056 240.8661 14.32997870448518
1 39921U 94029AFU 23002.20115241  .00006264  00000-0  19385-2 0  9997
2 39921  81.5388 325.2116 0412176 338.1726  20.2304 14.01880203438227
1 39922U 94029AFV 23001.88129325  .00003451  00000-0  49541-3 0  9992
2 39922  81.5963 215.3931 0167046  51.5668 310.0394 14.67046509458142
1 39923U 94029AFW 23003.69495404  .00005517  00000-0  20817-2 0  9997
2 39923  82.1644 167.7107 0606709 226.3139 128.6203 13.60954735431526
1 39924U 94029AFX 23002.23006730  .00003809  00000-0  51414-3 0  9997
2 39924  81.8589 345.7849 0134714  27.8851 332.9490 14.72692818460377
1 39926U 94029AFZ 23003.24522269  .00001965  00000-0  57547-3 0  9995
2 39926  81.8445 349.4728 0315993 274.1286  96.3849 14.18429339443596
1 39927U 94029AGA 23002.01839634  .00007276  00000-0  66719-3 0  9999
2 39927  81.8258 108.6198 0069619 151.6703 208.8330 14.92893366465977
1 39928U 94029AGB 23003.14569510  .00007963  00000-0  14019-2 0  9996
2 39928  81.0254 151.8325 0269339  97.5774 265.6096 14.46434064450255
1 39929U 94029AGC 22363.14409304  .00003431  00000-0  73202-3 0  9995
2 39929  81.9504 317.6961 0289164  64.5378 298.5424 14.35663925448203
1 39930U 94029AGD 23001.85410286  .00014039  00000-0  90819-3 0  9995
2 39930  81.5649 213.7988 0084157 139.4740 221.2793 15.05130301908068
1 39932U 94029AGF 23003.56460621  .00001758  00000-0  46541-3 0  9992
2 39932  81.8212 311.4723 0323749 241.4484 115.3760 14.21616981444763
1 39935U 81053MV  23002.94545112  .00000878  00000-0  65147-3 0  9993
2 39935  82.8260  62.6207 0038707 169.3824   6.2428 13.93737483436146
1 39936U 81053MW  23002.84105103  .00001020  00000-0  85960-3 0  9990
2 39936  83.1488  47.8898 0062708 201.0895 158.7682 13.86025695946580
1 39937U 81053MX  23003.26878972  .00001653  00000-0  14394-2 0  9993
2 39937  82.8875 359.7226 0071971  92.9221 268.0180 13.84189074459979
1 39938U 81053MY  23003.54536081  .00000790  00000-0  90198-3 0  9995
2 39938  83.0718 299.3641 0134369 212.1243 147.1670 13.65013420426997
1 39939U 81053MZ  22365.64520404  .00000705  00000-0  69176-3 0  9997
2 39939  82.8201 328.7547 0073841  85.0931 275.8651 13.76377149430785
1 39941U 81053NB  22362.31781007  .00001209  00000-0  10917-2 0  9997
2 39941  83.0221   5.8082 0105567 162.6866 197.7939 13.80550586432067
1 39942U 81053NC  23001.77292778  .00001306  00000-0  99733-3 0  9993
2 39942  83.1771  13.9247 0047504 182.3203 177.7750 13.92226253435574
1 39943U 81053ND  23003.38320698  .00000892  00000-0  11156-2 0  9997
2 39943  83.0668  19.3800 0149854 232.9031 193.6019 13.58854364425066
1 39944U 81053NE  23003.76788479  .00010421  00000-0  19695-2 0  9990
2 39944  82.8290 176.1135 0021418 348.1365  11.9332 14.64180473483383
1 39945U 81053NF  23002.93192522  .00000284  00000-0  26150-3 0  9998
2 39945  82.9533  69.5465 0038082 305.5487 229.6983 13.79301042431816
1 39946U 81053NG  23002.81228450  .00000252  00000-0  22592-3 0  9997
2 39946  82.9537  37.9661 0034725 200.7093 159.2661 13.80337650751909
1 39947U 81053NH  23003.92447734  .00000942  00000-0  10871-2 0  9991
2 39947  83.0161 163.6536 0121788 112.7018  40.4883 13.65062257 36339
1 39948U 81053NJ  22363.06847159  .00000915  00000-0  11809-2 0  9992
2 39948  83.0626  99.8696 0199008 224.8139 315.2267 13.53679109422630
1 39949U 81053NK  23004.27830097  .00001391  00000-0  11286-2 0  9990
2 39949  82.8288 209.0415 0037843 287.5849  72.1182 13.89076458861367
1 39951U 81053NM  22365.10311601  .00003469  00000-0  21241-2 0  9999
2 39951  82.8291 129.6863 0060272 330.9231  28.8589 14.04691275 80234
1 39954U 81053NQ  23003.52589042  .00003133  00000-0  14660-2 0  9999
2 39954  82.8984  41.2923 0057274 149.6806 210.7709 14.19126346442947
1 39955U 81053NR  22364.56623114  .00001415  00000-0  14257-2 0  9995
2 39955  83.4190 311.9408 0113881  30.8860 329.8929 13.73916188431547
1 39956U 81053NS  23002.55915709  .00001249  00000-0  12828-2 0  9996
2 39956  83.0184 116.7456 0134042 213.6987 159.8197 13.71704615111286
1 39957U 81053NT  23002.51457472  .00000085  00000-0  74145-4 0  9990
2 39957  82.9258  71.4726 0036692 224.5546 199.7009 13.74369592430326
1 39958U 81053NU  23002.87995664  .00001087  00000-0  11577-2 0  9991
2 39958  83.0266  54.6269 0087956  11.1882 111.4389 13.71602047879629
1 39959U 81053NV  23001.03733391  .00000097  00000-0  84622-4 0  9999
2 39959  82.9614 112.0804 0040479  77.1323 283.4351 13.75171226430211
1 39960U 81053NW  23003.58860669  .00000378  00000-0  52045-3 0  9997
2 39960  83.1453 320.5395 0241106 152.8908 208.5066 13.44676109402618
1 39961U 81053NX  23002.63041962  .00001612  00000-0  12750-2 0  9990
2 39961  82.7728 120.7328 0055236 311.8179 109.0240 13.90259609434829
